start=new Date('2022-02-06T00:00:00.000Z').valueOf();
sats=[{"OBJECT_TYPE":"PAYLOAD","OBJECT_ID":"2020-012BH","DECAY_DATE":null,"ELEMENT_SET_NO":"999","MEAN_MOTION":"15.06399261","PERIAPSIS":"546.066","MEAN_ELEMENT_THEORY":"SGP4","BSTAR":"0.00007196400000","CLASSIFICATION_TYPE":"U","GP_ID":"195366837","EPOCH":"2022-02-05T06:48:55.326816","MEAN_MOTION_DOT":"0.00000790","LAUNCH_DATE":"2020-02-17","FILE":"3292709","INCLINATION":"53.0552","NORAD_CAT_ID":"45233","RA_OF_ASC_NODE":"250.7802","MEAN_ANOMALY":"286.8386","REF_FRAME":"TEME","MEAN_MOTION_DDOT":"0.0000000000000","TIME_SYSTEM":"UTC","RCS_SIZE":"LARGE","TLE_LINE1":"1 45233U 20012BH  22036.28397369  .00000790  00000-0  71964-4 0  9999","COUNTRY_CODE":"US","REV_AT_EPOCH":"11001","OBJECT_NAME":"STARLINK-1238","APOAPSIS":"548.366","SEMIMAJOR_AXIS":"6925.351","ARG_OF_PERICENTER":"73.2785","EPHEMERIS_TYPE":"0","PERIOD":"95.592","SITE":"AFETR","CENTER_NAME":"EARTH","TLE_LINE2":"2 45233  53.0552 250.7802 0001661  73.2785 286.8386 15.06399261110015","ECCENTRICITY":"0.00016610"},{"LAUNCH_DATE":"2020-02-17","MEAN_MOTION_DOT":"-0.00000724","NORAD_CAT_ID":"45234","FILE":"3292845","INCLINATION":"53.0536","CLASSIFICATION_TYPE":"U","BSTAR":"-0.00002972200000","MEAN_ELEMENT_THEORY":"SGP4","EPOCH":"2022-02-05T18:53:25.847808","GP_ID":"195375716","ELEMENT_SET_NO":"999","PERIAPSIS":"546.137","MEAN_MOTION":"15.06398922","DECAY_DATE":null,"OBJECT_TYPE":"PAYLOAD","OBJECT_ID":"2020-012BJ","CENTER_NAME":"EARTH","SITE":"AFETR","PERIOD":"95.592","EPHEMERIS_TYPE":"0","ECCENTRICITY":"0.00015590","TLE_LINE2":"2 45234  53.0536 268.5062 0001559  70.1063 290.0094 15.06398922108916","OBJECT_NAME":"STARLINK-1243","ARG_OF_PERICENTER":"70.1063","SEMIMAJOR_AXIS":"6925.352","APOAPSIS":"548.297","TLE_LINE1":"1 45234U 20012BJ  22036.78710472 -.00000724  00000-0 -29722-4 0  9993","RCS_SIZE":"LARGE","REV_AT_EPOCH":"10891","COUNTRY_CODE":"US","MEAN_MOTION_DDOT":"0.0000000000000","REF_FRAME":"TEME","MEAN_ANOMALY":"290.0094","RA_OF_ASC_NODE":"268.5062","TIME_SYSTEM":"UTC"},{"TIME_SYSTEM":"UTC","RA_OF_ASC_NODE":"270.3821","MEAN_ANOMALY":"293.5984","REF_FRAME":"TEME","MEAN_MOTION_DDOT":"0.0000000000000","COUNTRY_CODE":"US","REV_AT_EPOCH":"10978","RCS_SIZE":"LARGE","TLE_LINE1":"1 45235U 20012BK  22036.37427640  .00001078  00000-0  91243-4 0  9999","APOAPSIS":"548.375","ARG_OF_PERICENTER":"66.5183","SEMIMAJOR_AXIS":"6925.340","OBJECT_NAME":"STARLINK-1246","TLE_LINE2":"2 45235  53.0526 270.3821 0001690  66.5183 293.5984 15.06402947109783","ECCENTRICITY":"0.00016900","EPHEMERIS_TYPE":"0","PERIOD":"95.592","CENTER_NAME":"EARTH","SITE":"AFETR","OBJECT_TYPE":"PAYLOAD","OBJECT_ID":"2020-012BK","DECAY_DATE":null,"MEAN_MOTION":"15.06402947","PERIAPSIS":"546.034","ELEMENT_SET_NO":"999","GP_ID":"195365336","EPOCH":"2022-02-05T08:58:57.480960","MEAN_ELEMENT_THEORY":"SGP4","BSTAR":"0.00009124300000","CLASSIFICATION_TYPE":"U","FILE":"3292709","INCLINATION":"53.0526","NORAD_CAT_ID":"45235","MEAN_MOTION_DOT":"0.00001078","LAUNCH_DATE":"2020-02-17"},{"REV_AT_EPOCH":"10945","COUNTRY_CODE":"US","TLE_LINE1":"1 45236U 20012BL  22036.82029021 -.00001620  00000-0 -89888-4 0  9998","RCS_SIZE":"LARGE","TIME_SYSTEM":"UTC","REF_FRAME":"TEME","MEAN_MOTION_DDOT":"0.0000000000000","MEAN_ANOMALY":"302.6782","RA_OF_ASC_NODE":"228.3650","ECCENTRICITY":"0.00016160","TLE_LINE2":"2 45236  53.0530 228.3650 0001616  57.4363 302.6782 15.06399770109450","CENTER_NAME":"EARTH","SITE":"AFETR","PERIOD":"95.592","EPHEMERIS_TYPE":"0","ARG_OF_PERICENTER":"57.4363","SEMIMAJOR_AXIS":"6925.349","APOAPSIS":"548.333","OBJECT_NAME":"STARLINK-1247","PERIAPSIS":"546.095","MEAN_MOTION":"15.06399770","ELEMENT_SET_NO":"999","DECAY_DATE":null,"OBJECT_ID":"2020-012BL","OBJECT_TYPE":"PAYLOAD","NORAD_CAT_ID":"45236","FILE":"3292932","INCLINATION":"53.0530","LAUNCH_DATE":"2020-02-17","MEAN_MOTION_DOT":"-0.00001620","EPOCH":"2022-02-05T19:41:13.074144","GP_ID":"195377221","CLASSIFICATION_TYPE":"U","BSTAR":"-0.00008988800000","MEAN_ELEMENT_THEORY":"SGP4"},{"ELEMENT_SET_NO":"999","MEAN_MOTION":"15.06404743","PERIAPSIS":"545.957","OBJECT_ID":"2020-012BM","OBJECT_TYPE":"PAYLOAD","DECAY_DATE":null,"MEAN_MOTION_DOT":"0.00003201","LAUNCH_DATE":"2020-02-17","FILE":"3292709","INCLINATION":"53.0535","NORAD_CAT_ID":"45237","MEAN_ELEMENT_THEORY":"SGP4","BSTAR":"0.00023365000000","CLASSIFICATION_TYPE":"U","GP_ID":"195366338","EPOCH":"2022-02-05T12:15:21.710880","RCS_SIZE":"LARGE","TLE_LINE1":"1 45237U 20012BM  22036.51066795  .00003201  00000-0  23365-3 0  9996","COUNTRY_CODE":"US","REV_AT_EPOCH":"11034","RA_OF_ASC_NODE":"229.7741","MEAN_ANOMALY":"287.2851","MEAN_MOTION_DDOT":"0.0000000000000","REF_FRAME":"TEME","TIME_SYSTEM":"UTC","EPHEMERIS_TYPE":"0","PERIOD":"95.592","SITE":"AFETR","CENTER_NAME":"EARTH","TLE_LINE2":"2 45237  53.0535 229.7741 0001793  72.8334 287.2851 15.06404743110349","ECCENTRICITY":"0.00017930","OBJECT_NAME":"STARLINK-1270","APOAPSIS":"548.441","SEMIMAJOR_AXIS":"6925.334","ARG_OF_PERICENTER":"72.8334"},{"TLE_LINE2":"2 45360  53.0563 359.3498 0001580  61.6280 298.4868 15.06387046105090","ECCENTRICITY":"0.00015800","PERIOD":"95.593","EPHEMERIS_TYPE":"0","CENTER_NAME":"EARTH","SITE":"AFETR","APOAPSIS":"548.347","ARG_OF_PERICENTER":"61.6280","SEMIMAJOR_AXIS":"6925.388","OBJECT_NAME":"STARLINK-1279","COUNTRY_CODE":"US","REV_AT_EPOCH":"10509","RCS_SIZE":"LARGE","TLE_LINE1":"1 45360U 20019A   22036.60189085 -.00000747  00000-0 -31284-4 0  9992","TIME_SYSTEM":"UTC","RA_OF_ASC_NODE":"359.3498","MEAN_ANOMALY":"298.4868","MEAN_MOTION_DDOT":"0.0000000000000","REF_FRAME":"TEME","FILE":"3292977","INCLINATION":"53.0563","NORAD_CAT_ID":"45360","MEAN_MOTION_DOT":"-0.00000747","LAUNCH_DATE":"2020-03-18","GP_ID":"195378122","EPOCH":"2022-02-05T14:26:43.369440","MEAN_ELEMENT_THEORY":"SGP4","BSTAR":"-0.00003128400000","CLASSIFICATION_TYPE":"U","MEAN_MOTION":"15.06387046","PERIAPSIS":"546.159","ELEMENT_SET_NO":"999","OBJECT_ID":"2020-019A","OBJECT_TYPE":"PAYLOAD","DECAY_DATE":null},{"TIME_SYSTEM":"UTC","RA_OF_ASC_NODE":"8.5082","MEAN_ANOMALY":"269.3638","REF_FRAME":"TEME","MEAN_MOTION_DDOT":"0.0000000000000","COUNTRY_CODE":"US","REV_AT_EPOCH":"10499","RCS_SIZE":"LARGE","TLE_LINE1":"1 45361U 20019B   22036.78893968  .00000816  00000-0  73708-4 0  9996","APOAPSIS":"548.346","ARG_OF_PERICENTER":"90.7538","SEMIMAJOR_AXIS":"6925.349","OBJECT_NAME":"STARLINK-1301","TLE_LINE2":"2 45361  53.0539   8.5082 0001635  90.7538 269.3638 15.06399887104992","ECCENTRICITY":"0.00016350","PERIOD":"95.592","EPHEMERIS_TYPE":"0","CENTER_NAME":"EARTH","SITE":"AFETR","OBJECT_ID":"2020-019B","OBJECT_TYPE":"PAYLOAD","DECAY_DATE":null,"MEAN_MOTION":"15.06399887","PERIAPSIS":"546.082","ELEMENT_SET_NO":"999","GP_ID":"195378170","EPOCH":"2022-02-05T18:56:04.388352","MEAN_ELEMENT_THEORY":"SGP4","BSTAR":"0.00007370800000","CLASSIFICATION_TYPE":"U","FILE":"3292979","INCLINATION":"53.0539","NORAD_CAT_ID":"45361","MEAN_MOTION_DOT":"0.00000816","LAUNCH_DATE":"2020-03-18"},{"SEMIMAJOR_AXIS":"6925.368","ARG_OF_PERICENTER":"71.1256","APOAPSIS":"548.395","OBJECT_NAME":"STARLINK-1306","ECCENTRICITY":"0.00016770","TLE_LINE2":"2 45362  53.0550  28.8966 0001677  71.1256 288.9914 15.06393539104709","SITE":"AFETR","CENTER_NAME":"EARTH","EPHEMERIS_TYPE":"0","PERIOD":"95.593","TIME_SYSTEM":"UTC","MEAN_MOTION_DDOT":"0.0000000000000","REF_FRAME":"TEME","MEAN_ANOMALY":"288.9914","RA_OF_ASC_NODE":"28.8966","REV_AT_EPOCH":"10470","COUNTRY_CODE":"US","TLE_LINE1":"1 45362U 20019C   22036.70232741 -.00002860  00000-0 -17323-3 0  9998","RCS_SIZE":"LARGE","EPOCH":"2022-02-05T16:51:21.088224","GP_ID":"195377975","CLASSIFICATION_TYPE":"U","BSTAR":"-0.00017323000000","MEAN_ELEMENT_THEORY":"SGP4","NORAD_CAT_ID":"45362","FILE":"3292979","INCLINATION":"53.0550","LAUNCH_DATE":"2020-03-18","MEAN_MOTION_DOT":"-0.00002860","DECAY_DATE":null,"OBJECT_TYPE":"PAYLOAD","OBJECT_ID":"2020-019C","PERIAPSIS":"546.072","MEAN_MOTION":"15.06393539","ELEMENT_SET_NO":"999"},{"PERIAPSIS":"545.896","MEAN_MOTION":"15.06401742","ELEMENT_SET_NO":"999","OBJECT_TYPE":"PAYLOAD","OBJECT_ID":"2020-019E","DECAY_DATE":null,"NORAD_CAT_ID":"45364","FILE":"3292980","INCLINATION":"53.0554","LAUNCH_DATE":"2020-03-18","MEAN_MOTION_DOT":"0.00001482","GP_ID":"195377985","EPOCH":"2022-02-05T14:21:24.399648","CLASSIFICATION_TYPE":"U","MEAN_ELEMENT_THEORY":"SGP4","BSTAR":"0.00011836000000","REV_AT_EPOCH":"10509","COUNTRY_CODE":"US","TLE_LINE1":"1 45364U 20019E   22036.59819907  .00001482  00000-0  11836-3 0  9992","RCS_SIZE":"LARGE","TIME_SYSTEM":"UTC","REF_FRAME":"TEME","MEAN_MOTION_DDOT":"0.0000000000000","RA_OF_ASC_NODE":"359.3705","MEAN_ANOMALY":"296.8379","TLE_LINE2":"2 45364  53.0554 359.3705 0001895  63.2804 296.8379 15.06401742105093","ECCENTRICITY":"0.00018950","CENTER_NAME":"EARTH","SITE":"AFETR","EPHEMERIS_TYPE":"0","PERIOD":"95.592","APOAPSIS":"548.521","SEMIMAJOR_AXIS":"6925.343","ARG_OF_PERICENTER":"63.2804","OBJECT_NAME":"STARLINK-1313"},{"OBJECT_TYPE":"PAYLOAD","OBJECT_ID":"2020-019F","DECAY_DATE":null,"PERIAPSIS":"548.383","MEAN_MOTION":"15.05613360","ELEMENT_SET_NO":"999","GP_ID":"195366597","EPOCH":"2022-02-05T04:52:03.787968","CLASSIFICATION_TYPE":"U","MEAN_ELEMENT_THEORY":"SGP4","BSTAR":"0.00032400000000","NORAD_CAT_ID":"45365","FILE":"3292709","INCLINATION":"53.0019","LAUNCH_DATE":"2020-03-18","MEAN_MOTION_DOT":"0.00004448","TIME_SYSTEM":"UTC","REF_FRAME":"TEME","MEAN_MOTION_DDOT":"0.0000000000000","RA_OF_ASC_NODE":"11.1568","MEAN_ANOMALY":"288.6099","REV_AT_EPOCH":"10486","COUNTRY_CODE":"US","TLE_LINE1":"1 45365U 20019F   22036.20282162  .00004448  00000-0  32400-3 0  9993","RCS_SIZE":"LARGE","APOAPSIS":"550.868","SEMIMAJOR_AXIS":"6927.761","ARG_OF_PERICENTER":"71.5084","OBJECT_NAME":"STARLINK-1317","TLE_LINE2":"2 45365  53.0019  11.1568 0001794  71.5084 288.6099 15.05613360104862","ECCENTRICITY":"0.00017940","CENTER_NAME":"EARTH","SITE":"AFETR","PERIOD":"95.642","EPHEMERIS_TYPE":"0"}];
